[ {"spaceTrack": {"CCSDS_OMM_VERS": "2.0", "COMMENT": "GENERATED VIA SPACE-TRACK.ORG API", "CREATION_DATE": "2020-08-23 22:36:09", "ORIGINATOR": "18 SPCS", "OBJECT_NAME": "STARLINK-1507", "OBJECT_ID": "2020-038U", "CENTER_NAME": "EARTH", "REF_FRAME": "TEME", "TIME_SYSTEM": "UTC", "MEAN_ELEMENT_THEORY": "SGP4", "EPOCH": "2020-08-23 22:00:00.999936", "MEAN_MOTION": 15.05568059, "ECCENTRICITY": 9.07e-05, "INCLINATION": 52.9987, "RA_OF_ASC_NODE": 321.686, "ARG_OF_PERICENTER": 121.2471, "MEAN_ANOMALY": 82.5303, "EPHEMERIS_TYPE": 0, "CLASSIFICATION_TYPE": "U", "NORAD_CAT_ID": 45748, "ELEMENT_SET_NO": 999, "REV_AT_EPOCH": 1210, "BSTAR": 0.0015986, "MEAN_MOTION_DOT": 0.00023081, "MEAN_MOTION_DDOT": 0, "SEMIMAJOR_AXIS": 6927.899, "PERIOD": 95.644, "APOAPSIS": 550.392, "PERIAPSIS": 549.136, "OBJECT_TYPE": "PAYLOAD", "RCS_SIZE": "LARGE", "COUNTRY_CODE": "US", "LAUNCH_DATE": "2020-06-13", "SITE": "AFETR", "DECAY_DATE": null, "DECAYED": 0, "FILE": 2807270, "GP_ID": 159986455, "TLE_LINE0": "0 STARLINK-1507", "TLE_LINE1": "1 45748U 20038U   20236.91667824  .00023081  00000-0  15986-2 0  9992", "TLE_LINE2": "2 45748  52.9987 321.6860 0000907 121.2471  82.5303 15.05568059 12109"}, "version": "v1.0", "launch": "5eb87d46ffd86e000604b389", "longitude": -171.12517226834746, "latitude": -17.90723324142265, "height_km": 554.5173626393753, "velocity_kms": 7.584708793576958, "id": "5eed7716096e5900069857f7"}, {"spaceTrack": {"CCSDS_OMM_VERS": "2.0", "COMMENT": "GENERATED VIA SPACE-TRACK.ORG API", "CREATION_DATE": "2020-08-23 22:36:09", "ORIGINATOR": "18 SPCS", "OBJECT_NAME": "STARLINK-1480", "OBJECT_ID": "2020-038M", "CENTER_NAME": "EARTH", "REF_FRAME": "TEME", "TIME_SYSTEM": "UTC", "MEAN_ELEMENT_THEORY": "SGP4", "EPOCH": "2020-08-23 22:00:00.999936", "MEAN_MOTION": 15.055817, "ECCENTRICITY": 0.0001311, "INCLINATION": 53.0141, "RA_OF_ASC_NODE": 321.6088, "ARG_OF_PERICENTER": 67.5403, "MEAN_ANOMALY": 352.308, "EPHEMERIS_TYPE": 0, "CLASSIFICATION_TYPE": "U", "NORAD_CAT_ID": 45741, "ELEMENT_SET_NO": 999, "REV_AT_EPOCH": 1229, "BSTAR": -0.0023382, "MEAN_MOTION_DOT": -0.00034184, "MEAN_MOTION_DDOT": 0, "SEMIMAJOR_AXIS": 6927.857, "PERIOD": 95.644, "APOAPSIS": 550.63, "PERIAPSIS": 548.814, "OBJECT_TYPE": "PAYLOAD", "RCS_SIZE": "LARGE", "COUNTRY_CODE": "US", "LAUNCH_DATE": "2020-06-13", "SITE": "AFETR", "DECAY_DATE": null, "DECAYED": 0, "FILE": 2807266, "GP_ID": 159985904, "TLE_LINE0": "0 STARLINK-1480", "TLE_LINE1": "1 45741U 20038M   20236.91667824 -.00034184  00000-0 -23382-2 0  9992", "TLE_LINE2": "2 45741  53.0141 321.6088 0001311  67.5403 352.3080 15.05581700 12293"}, "version": "v1.0", "launch": "5eb87d46ffd86e000604b389", "longitude": 39.19883744827044, "latitude": 43.05608189907259, "height_km": 553.0916509060089, "velocity_kms": 7.591074317144449, "id": "5eed7716096e5900069857f8"}, {"spaceTrack": {"CCSDS_OMM_VERS": "2.0", "COMMENT": "GENERATED VIA SPACE-TRACK.ORG API", "CREATION_DATE": "2020-08-23 14:56:10", "ORIGINATOR": "18 SPCS", "OBJECT_NAME": "STARLINK-1405", "OBJECT_ID": "2020-035AX", "CENTER_NAME": "EARTH", "REF_FRAME": "TEME", "TIME_SYSTEM": "UTC", "MEAN_ELEMENT_THEORY": "SGP4", "EPOCH": "2020-08-23 14:00:01.999872", "MEAN_MOTION": 15.38619391, "ECCENTRICITY": 0.0001205, "INCLINATION": 52.9849, "RA_OF_ASC_NODE": 124.4312, "ARG_OF_PERICENTER": 69.4554, "MEAN_ANOMALY": 248.9105, "EPHEMERIS_TYPE": 0, "CLASSIFICATION_TYPE": "U", "NORAD_CAT_ID": 45702, "ELEMENT_SET_NO": 999, "REV_AT_EPOCH": 1405, "BSTAR": -0.030444, "MEAN_MOTION_DOT": -0.01081442, "MEAN_MOTION_DDOT": 0, "SEMIMAJOR_AXIS": 6828.327, "PERIOD": 93.59, "APOAPSIS": 451.015, "PERIAPSIS": 449.37, "OBJECT_TYPE": "PAYLOAD", "RCS_SIZE": "LARGE", "COUNTRY_CODE": "US", "LAUNCH_DATE": "2020-06-04", "SITE": "AFETR", "DECAY_DATE": null, "DECAYED": 0, "FILE": 2807106, "GP_ID": 159941098, "TLE_LINE0": "0 STARLINK-1405", "TLE_LINE1": "1 45702U 20035AX  20236.58335648 -.01081442  00000-0 -30444-1 0  9991", "TLE_LINE2": "2 45702  52.9849 124.4312 0001205  69.4554 248.9105 15.38619391 14050"}, "version": "v1.0", "launch": "5eb87d45ffd86e000604b387", "longitude": 163.0149750328007, "latitude": 9.238801465919074, "height_km": 452.63283745638, "velocity_kms": 7.6430724888486345, "id": "5eed7716096e5900069857f9"}, {"spaceTrack": {"CCSDS_OMM_VERS": "2.0", "COMMENT": "GENERATED VIA SPACE-TRACK.ORG API", "CREATION_DATE": "2020-08-23 14:46:10", "ORIGINATOR": "18 SPCS", "OBJECT_NAME": "STARLINK-1503", "OBJECT_ID": "2020-038R", "CENTER_NAME": "EARTH", "REF_FRAME": "TEME", "TIME_SYSTEM": "UTC", "MEAN_ELEMENT_THEORY": "SGP4", "EPOCH": "2020-08-23 14:00:01.999872", "MEAN_MOTION": 15.05570491, "ECCENTRICITY": 0.0001238, "INCLINATION": 52.9999, "RA_OF_ASC_NODE": 323.183, "ARG_OF_PERICENTER": 112.9776, "MEAN_ANOMALY": 101.1993, "EPHEMERIS_TYPE": 0, "CLASSIFICATION_TYPE": "U", "NORAD_CAT_ID": 45745, "ELEMENT_SET_NO": 999, "REV_AT_EPOCH": 1204, "BSTAR": 0.00044109, "MEAN_MOTION_DOT": 6.151e-05, "MEAN_MOTION_DDOT": 0, "SEMIMAJOR_AXIS": 6927.892, "PERIOD": 95.644, "APOAPSIS": 550.614, "PERIAPSIS": 548.899, "OBJECT_TYPE": "PAYLOAD", "RCS_SIZE": "LARGE", "COUNTRY_CODE": "US", "LAUNCH_DATE": "2020-06-13", "SITE": "AFETR", "DECAY_DATE": null, "DECAYED": 0, "FILE": 2807070, "GP_ID": 159940600, "TLE_LINE0": "0 STARLINK-1503", "TLE_LINE1": "1 45745U 20038R   20236.58335648  .00006151  00000-0  44109-3 0  9997", "TLE_LINE2": "2 45745  52.9999 323.1830 0001238 112.9776 101.1993 15.05570491 12045"}, "version": "v1.0", "launch": "5eb87d46ffd86e000604b389", "longitude": -157.82871198205484, "latitude": -31.481223429679726, "height_km": 559.6715706424793, "velocity_kms": 7.581363498729959, "id": "5eed7716096e5900069857fa"}, {"spaceTrack": {"CCSDS_OMM_VERS": "2.0", "COMMENT": "GENERATED VIA SPACE-TRACK.ORG API", "CREATION_DATE": "2020-08-23 22:46:10", "ORIGINATOR": "18 SPCS", "OBJECT_NAME": "STARLINK-1436", "OBJECT_ID": "2020-035BJ", "CENTER_NAME": "EARTH", "REF_FRAME": "TEME", "TIME_SYSTEM": "UTC", "MEAN_ELEMENT_THEORY": "SGP4", "EPOCH": "2020-08-23 22:00:00.999936", "MEAN_MOTION": 15.05586191, "ECCENTRICITY": 0.0001739, "INCLINATION": 53, "RA_OF_ASC_NODE": 141.6766, "ARG_OF_PERICENTER": 79.8929, "MEAN_ANOMALY": 356.7626, "EPHEMERIS_TYPE": 0, "CLASSIFICATION_TYPE": "U", "NORAD_CAT_ID": 45713, "ELEMENT_SET_NO": 999, "REV_AT_EPOCH": 1345, "BSTAR": -0.0023155, "MEAN_MOTION_DOT": -0.00033862, "MEAN_MOTION_DDOT": 0, "SEMIMAJOR_AXIS": 6927.843, "PERIOD": 95.643, "APOAPSIS": 550.913, "PERIAPSIS": 548.504, "OBJECT_TYPE": "PAYLOAD", "RCS_SIZE": "LARGE", "COUNTRY_CODE": "US", "LAUNCH_DATE": "2020-06-04", "SITE": "AFETR", "DECAY_DATE": null, "DECAYED": 0, "FILE": 2807314, "GP_ID": 159987077, "TLE_LINE0": "0 STARLINK-1436", "TLE_LINE1": "1 45713U 20035BJ  20236.91667824 -.00033862  00000-0 -23155-2 0  9998", "TLE_LINE2": "2 45713  53.0000 141.6766 0001739  79.8929 356.7626 15.05586191 13454"}, "version": "v1.0", "launch": "5eb87d45ffd86e000604b387", "longitude": -118.75187150175941, "latitude": 50.722080277593484, "height_km": 554.5131006247993, "velocity_kms": 7.591236997079124, "id": "5eed7716096e5900069857fb"}, {"spaceTrack": {"CCSDS_OMM_VERS": "2.0", "COMMENT": "GENERATED VIA SPACE-TRACK.ORG API", "CREATION_DATE": "2020-08-23 14:46:10", "ORIGINATOR": "18 SPCS", "OBJECT_NAME": "STARLINK-1464", "OBJECT_ID": "2020-038X", "CENTER_NAME": "EARTH", "REF_FRAME": "TEME", "TIME_SYSTEM": "UTC", "MEAN_ELEMENT_THEORY": "SGP4", "EPOCH": "2020-08-23 14:00:01.999872", "MEAN_MOTION": 15.5927658, "ECCENTRICITY": 0.0001651, "INCLINATION": 52.9989, "RA_OF_ASC_NODE": 307.4692, "ARG_OF_PERICENTER": 268.0134, "MEAN_ANOMALY": 357.2395, "EPHEMERIS_TYPE": 0, "CLASSIFICATION_TYPE": "U", "NORAD_CAT_ID": 45751, "ELEMENT_SET_NO": 999, "REV_AT_EPOCH": 1246, "BSTAR": -0.014962, "MEAN_MOTION_DOT": -0.01088109, "MEAN_MOTION_DDOT": 0, "SEMIMAJOR_AXIS": 6767.886, "PERIOD": 92.35, "APOAPSIS": 390.868, "PERIAPSIS": 388.634, "OBJECT_TYPE": "PAYLOAD", "RCS_SIZE": "LARGE", "COUNTRY_CODE": "US", "LAUNCH_DATE": "2020-06-13", "SITE": "AFETR", "DECAY_DATE": null, "DECAYED": 0, "FILE": 2807060, "GP_ID": 159940162, "TLE_LINE0": "0 STARLINK-1464", "TLE_LINE1": "1 45751U 20038X   20236.58335648 -.01088109  00000-0 -14962-1 0  9992", "TLE_LINE2": "2 45751  52.9989 307.4692 0001651 268.0134 357.2395 15.59276580 12469"}, "version": "v1.0", "launch": "5eb87d46ffd86e000604b389", "longitude": -28.191982492415995, "latitude": -9.470013318915708, "height_km": 394.78698573179827, "velocity_kms": 7.674240971934279, "id": "5eed7716096e5900069857fc"}, {"spaceTrack": {"CCSDS_OMM_VERS": "2.0", "COMMENT": "GENERATED VIA SPACE-TRACK.ORG API", "CREATION_DATE": "2020-08-23 22:36:09", "ORIGINATOR": "18 SPCS", "OBJECT_NAME": "STARLINK-1500", "OBJECT_ID": "2020-038Q", "CENTER_NAME": "EARTH", "REF_FRAME": "TEME", "TIME_SYSTEM": "UTC", "MEAN_ELEMENT_THEORY": "SGP4", "EPOCH": "2020-08-23 22:00:00.999936", "MEAN_MOTION": 15.05580655, "ECCENTRICITY": 8.53e-05, "INCLINATION": 52.999, "RA_OF_ASC_NODE": 321.6869, "ARG_OF_PERICENTER": 114.518, "MEAN_ANOMALY": 53.4085, "EPHEMERIS_TYPE": 0, "CLASSIFICATION_TYPE": "U", "NORAD_CAT_ID": 45744, "ELEMENT_SET_NO": 999, "REV_AT_EPOCH": 1209, "BSTAR": -0.0023203, "MEAN_MOTION_DOT": -0.00033925, "MEAN_MOTION_DDOT": 0, "SEMIMAJOR_AXIS": 6927.86, "PERIOD": 95.644, "APOAPSIS": 550.316, "PERIAPSIS": 549.134, "OBJECT_TYPE": "PAYLOAD", "RCS_SIZE": "LARGE", "COUNTRY_CODE": "US", "LAUNCH_DATE": "2020-06-13", "SITE": "AFETR", "DECAY_DATE": null, "DECAYED": 0, "FILE": 2807267, "GP_ID": 159986446, "TLE_LINE0": "0 STARLINK-1500", "TLE_LINE1": "1 45744U 20038Q   20236.91667824 -.00033925  00000-0 -23203-2 0  9999", "TLE_LINE2": "2 45744  52.9990 321.6869 0000853 114.5180  53.4085 15.05580655 12098"}, "version": "v1.0", "launch": "5eb87d46ffd86e000604b389", "longitude": 166.78792663627723, "latitude": 10.605426401734299, "height_km": 549.4925813398131, "velocity_kms": 7.589419911516742, "id": "5eed7716096e5900069857fd"}]